[Satellite]
VERSION=1.1
NAME=MOLNIYA 3-10
NICKNAME=MOLNIYA 3-10
TLE1=1 11057U 78095A   15051.48131618  .00000200  00000-0  73423-3 0  9991
TLE2=2 11057  62.5253 185.4152 7037942 260.0824  20.7073  2.34203164290914
